start=new Date('2022-12-17T00:00:00.000Z').valueOf();
sats=[{"PERIAPSIS":"406.588","REF_FRAME":"TEME","FILE":"3705029","SEMIMAJOR_AXIS":"6785.602","OBJECT_TYPE":"PAYLOAD","MEAN_MOTION_DOT":"-0.01131459","EPHEMERIS_TYPE":"0","RA_OF_ASC_NODE":"124.8586","CLASSIFICATION_TYPE":"U","ELEMENT_SET_NO":"999","MEAN_MOTION_DDOT":"0.0000000000000","OBJECT_ID":"2022-107Q","GP_ID":"220665022","TLE_LINE2":"2 53714  53.2172 124.8586 0001296  48.0297 268.8257 15.53174124  1309","REV_AT_EPOCH":"130","CENTER_NAME":"EARTH","OBJECT_NAME":"STARLINK-4688","ARG_OF_PERICENTER":"48.0297","TLE_LINE1":"1 53714U 22107Q   22350.91667824 -.01131459  00000-0 -19632-1 0  9995","BSTAR":"-0.01963200000000","ECCENTRICITY":"0.00012960","DECAY_DATE":null,"PERIOD":"92.713","INCLINATION":"53.2172","APOAPSIS":"408.347","MEAN_ELEMENT_THEORY":"SGP4","LAUNCH_DATE":"2022-09-05","MEAN_MOTION":"15.53174124","COUNTRY_CODE":"US","MEAN_ANOMALY":"268.8257","SITE":"AFETR","NORAD_CAT_ID":"53714","TIME_SYSTEM":"UTC","RCS_SIZE":"LARGE","EPOCH":"2022-12-16T22:00:00.999936"},{"DECAY_DATE":null,"PERIOD":"95.438","TLE_LINE1":"1 53715U 22107R   22350.85528644 -.00001240  00000-0 -59861-4 0  9999","ECCENTRICITY":"0.00019760","BSTAR":"-0.00005986100000","APOAPSIS":"541.146","LAUNCH_DATE":"2022-09-05","MEAN_ELEMENT_THEORY":"SGP4","INCLINATION":"53.2162","COUNTRY_CODE":"US","MEAN_MOTION":"15.08829125","RCS_SIZE":"LARGE","NORAD_CAT_ID":"53715","SITE":"AFETR","MEAN_ANOMALY":"310.0403","TIME_SYSTEM":"UTC","EPOCH":"2022-12-16T20:31:36.748416","REF_FRAME":"TEME","FILE":"3705029","PERIAPSIS":"538.412","EPHEMERIS_TYPE":"0","OBJECT_TYPE":"PAYLOAD","MEAN_MOTION_DOT":"-0.00001240","SEMIMAJOR_AXIS":"6917.914","ELEMENT_SET_NO":"999","MEAN_MOTION_DDOT":"0.0000000000000","CLASSIFICATION_TYPE":"U","RA_OF_ASC_NODE":"145.8184","ARG_OF_PERICENTER":"50.0763","OBJECT_NAME":"STARLINK-4686","TLE_LINE2":"2 53715  53.2162 145.8184 0001976  50.0763 310.0403 15.08829125 16455","GP_ID":"220665677","OBJECT_ID":"2022-107R","CENTER_NAME":"EARTH","REV_AT_EPOCH":"1645"},{"RA_OF_ASC_NODE":"145.7947","MEAN_MOTION_DDOT":"0.0000000000000","ELEMENT_SET_NO":"999","CLASSIFICATION_TYPE":"U","CENTER_NAME":"EARTH","REV_AT_EPOCH":"1644","TLE_LINE2":"2 53716  53.2179 145.7947 0001770  57.8477 302.2687 15.08840927 16448","OBJECT_ID":"2022-107S","GP_ID":"220665887","OBJECT_NAME":"STARLINK-4699","ARG_OF_PERICENTER":"57.8477","PERIAPSIS":"538.518","FILE":"3705029","REF_FRAME":"TEME","OBJECT_TYPE":"PAYLOAD","MEAN_MOTION_DOT":"-0.00000320","SEMIMAJOR_AXIS":"6917.878","EPHEMERIS_TYPE":"0","MEAN_MOTION":"15.08840927","COUNTRY_CODE":"US","EPOCH":"2022-12-16T20:26:16.987200","RCS_SIZE":"LARGE","NORAD_CAT_ID":"53716","SITE":"AFETR","MEAN_ANOMALY":"302.2687","TIME_SYSTEM":"UTC","ECCENTRICITY":"0.00017700","BSTAR":"-0.00000198940000","TLE_LINE1":"1 53716U 22107S   22350.85158550 -.00000320  00000-0 -19894-5 0  9996","PERIOD":"95.437","DECAY_DATE":null,"INCLINATION":"53.2179","LAUNCH_DATE":"2022-09-05","MEAN_ELEMENT_THEORY":"SGP4","APOAPSIS":"540.967"},{"COUNTRY_CODE":"US","MEAN_MOTION":"15.08838738","RCS_SIZE":"LARGE","TIME_SYSTEM":"UTC","SITE":"AFETR","NORAD_CAT_ID":"53718","MEAN_ANOMALY":"302.8589","EPOCH":"2022-12-16T20:20:58.472736","DECAY_DATE":null,"PERIOD":"95.438","TLE_LINE1":"1 53718U 22107U   22350.84789899  .00002284  00000-0  16156-3 0  9998","ECCENTRICITY":"0.00022020","BSTAR":"0.00016156000000","APOAPSIS":"541.273","MEAN_ELEMENT_THEORY":"SGP4","LAUNCH_DATE":"2022-09-05","INCLINATION":"53.2181","ELEMENT_SET_NO":"999","MEAN_MOTION_DDOT":"0.0000000000000","CLASSIFICATION_TYPE":"U","RA_OF_ASC_NODE":"145.7717","OBJECT_NAME":"STARLINK-4695","ARG_OF_PERICENTER":"57.2615","TLE_LINE2":"2 53718  53.2181 145.7717 0002202  57.2615 302.8589 15.08838738 16441","OBJECT_ID":"2022-107U","GP_ID":"220666487","CENTER_NAME":"EARTH","REV_AT_EPOCH":"1644","REF_FRAME":"TEME","FILE":"3705029","PERIAPSIS":"538.226","EPHEMERIS_TYPE":"0","MEAN_MOTION_DOT":"0.00002284","OBJECT_TYPE":"PAYLOAD","SEMIMAJOR_AXIS":"6917.884"},{"EPOCH":"2022-12-16T22:00:00.999936","RCS_SIZE":"LARGE","MEAN_ANOMALY":"337.2682","SITE":"AFETR","NORAD_CAT_ID":"53719","TIME_SYSTEM":"UTC","COUNTRY_CODE":"US","MEAN_MOTION":"15.45417745","MEAN_ELEMENT_THEORY":"SGP4","LAUNCH_DATE":"2022-09-05","APOAPSIS":"431.108","INCLINATION":"53.2172","PERIOD":"93.179","DECAY_DATE":null,"ECCENTRICITY":"0.00014030","BSTAR":"-0.02574400000000","TLE_LINE1":"1 53719U 22107V   22350.91667824 -.01143803  00000-0 -25744-1 0  9997","OBJECT_NAME":"STARLINK-4644","ARG_OF_PERICENTER":"41.4011","CENTER_NAME":"EARTH","REV_AT_EPOCH":"130","TLE_LINE2":"2 53719  53.2172 122.5122 0001403  41.4011 337.2682 15.45417745  1309","GP_ID":"220665469","OBJECT_ID":"2022-107V","MEAN_MOTION_DDOT":"0.0000000000000","ELEMENT_SET_NO":"999","CLASSIFICATION_TYPE":"U","RA_OF_ASC_NODE":"122.5122","EPHEMERIS_TYPE":"0","OBJECT_TYPE":"PAYLOAD","MEAN_MOTION_DOT":"-0.01143803","SEMIMAJOR_AXIS":"6808.288","FILE":"3705029","REF_FRAME":"TEME","PERIAPSIS":"429.198"},{"APOAPSIS":"541.317","MEAN_ELEMENT_THEORY":"SGP4","LAUNCH_DATE":"2022-09-05","INCLINATION":"53.2170","DECAY_DATE":null,"PERIOD":"95.438","TLE_LINE1":"1 53720U 22107W   22350.85895821 -.00000939  00000-0 -40899-4 0  9994","BSTAR":"-0.00004089900000","ECCENTRICITY":"0.00022610","MEAN_ANOMALY":"317.8035","SITE":"AFETR","NORAD_CAT_ID":"53720","TIME_SYSTEM":"UTC","RCS_SIZE":"LARGE","EPOCH":"2022-12-16T20:36:53.989344","COUNTRY_CODE":"US","MEAN_MOTION":"15.08837635","EPHEMERIS_TYPE":"0","SEMIMAJOR_AXIS":"6917.888","OBJECT_TYPE":"PAYLOAD","MEAN_MOTION_DOT":"-0.00000939","REF_FRAME":"TEME","FILE":"3705029","PERIAPSIS":"538.188","ARG_OF_PERICENTER":"42.3131","OBJECT_NAME":"STARLINK-4642","OBJECT_ID":"2022-107W","GP_ID":"220665230","TLE_LINE2":"2 53720  53.2170 145.8413 0002261  42.3131 317.8035 15.08837635 16457","REV_AT_EPOCH":"1645","CENTER_NAME":"EARTH","CLASSIFICATION_TYPE":"U","ELEMENT_SET_NO":"999","MEAN_MOTION_DDOT":"0.0000000000000","RA_OF_ASC_NODE":"145.8413"},{"EPOCH":"2022-12-16T20:47:29.949504","SITE":"AFETR","NORAD_CAT_ID":"53721","TIME_SYSTEM":"UTC","MEAN_ANOMALY":"307.5667","RCS_SIZE":"LARGE","COUNTRY_CODE":"US","MEAN_MOTION":"15.08847956","MEAN_ELEMENT_THEORY":"SGP4","LAUNCH_DATE":"2022-09-05","APOAPSIS":"541.080","INCLINATION":"53.2175","PERIOD":"95.437","DECAY_DATE":null,"BSTAR":"-0.00000222590000","ECCENTRICITY":"0.00019650","TLE_LINE1":"1 53721U 22107X   22350.86631886 -.00000324  00000-0 -22259-5 0  9994","OBJECT_NAME":"STARLINK-4707","ARG_OF_PERICENTER":"52.5504","REV_AT_EPOCH":"1645","CENTER_NAME":"EARTH","GP_ID":"220666292","OBJECT_ID":"2022-107X","TLE_LINE2":"2 53721  53.2175 145.8880 0001965  52.5504 307.5667 15.08847956 16452","CLASSIFICATION_TYPE":"U","ELEMENT_SET_NO":"999","MEAN_MOTION_DDOT":"0.0000000000000","RA_OF_ASC_NODE":"145.8880","EPHEMERIS_TYPE":"0","SEMIMAJOR_AXIS":"6917.856","OBJECT_TYPE":"PAYLOAD","MEAN_MOTION_DOT":"-0.00000324","FILE":"3705029","REF_FRAME":"TEME","PERIAPSIS":"538.362"},{"EPOCH":"2022-12-16T20:38:16.740672","NORAD_CAT_ID":"53722","SITE":"AFETR","MEAN_ANOMALY":"278.6767","TIME_SYSTEM":"UTC","RCS_SIZE":"LARGE","COUNTRY_CODE":"US","MEAN_MOTION":"15.08850080","MEAN_ELEMENT_THEORY":"SGP4","LAUNCH_DATE":"2022-09-05","APOAPSIS":"540.393","INCLINATION":"53.2177","PERIOD":"95.437","DECAY_DATE":null,"BSTAR":"-0.00013823000000","ECCENTRICITY":"0.00009810","TLE_LINE1":"1 53722U 22107Y   22350.85991598 -.00002488  00000-0 -13823-3 0  9991","OBJECT_NAME":"STARLINK-4700","ARG_OF_PERICENTER":"81.4336","REV_AT_EPOCH":"1644","CENTER_NAME":"EARTH","GP_ID":"220666082","OBJECT_ID":"2022-107Y","TLE_LINE2":"2 53722  53.2177 145.8515 0000981  81.4336 278.6767 15.08850080 16441","CLASSIFICATION_TYPE":"U","MEAN_MOTION_DDOT":"0.0000000000000","ELEMENT_SET_NO":"999","RA_OF_ASC_NODE":"145.8515","EPHEMERIS_TYPE":"0","SEMIMAJOR_AXIS":"6917.850","OBJECT_TYPE":"PAYLOAD","MEAN_MOTION_DOT":"-0.00002488","FILE":"3705029","REF_FRAME":"TEME","PERIAPSIS":"539.036"},{"REF_FRAME":"TEME","FILE":"3705029","PERIAPSIS":"538.480","EPHEMERIS_TYPE":"0","SEMIMAJOR_AXIS":"6917.891","OBJECT_TYPE":"PAYLOAD","MEAN_MOTION_DOT":"-0.00000916","CLASSIFICATION_TYPE":"U","MEAN_MOTION_DDOT":"0.0000000000000","ELEMENT_SET_NO":"999","RA_OF_ASC_NODE":"145.9341","ARG_OF_PERICENTER":"44.9877","OBJECT_NAME":"STARLINK-4705","OBJECT_ID":"2022-107Z","GP_ID":"220665023","TLE_LINE2":"2 53723  53.2170 145.9341 0001844  44.9877 315.1264 15.08836628 16593","REV_AT_EPOCH":"1659","CENTER_NAME":"EARTH","DECAY_DATE":null,"PERIOD":"95.438","TLE_LINE1":"1 53723U 22107Z   22350.87369244 -.00000916  00000-0 -39443-4 0  9992","BSTAR":"-0.00003944300000","ECCENTRICITY":"0.00018440","APOAPSIS":"541.031","MEAN_ELEMENT_THEORY":"SGP4","LAUNCH_DATE":"2022-09-05","INCLINATION":"53.2170","COUNTRY_CODE":"US","MEAN_MOTION":"15.08836628","MEAN_ANOMALY":"315.1264","SITE":"AFETR","NORAD_CAT_ID":"53723","TIME_SYSTEM":"UTC","RCS_SIZE":"LARGE","EPOCH":"2022-12-16T20:58:07.026816"},{"COUNTRY_CODE":"US","MEAN_MOTION":"15.08831023","EPOCH":"2022-12-16T20:42:11.251872","RCS_SIZE":"LARGE","SITE":"AFETR","NORAD_CAT_ID":"53724","MEAN_ANOMALY":"318.1084","TIME_SYSTEM":"UTC","PERIOD":"95.438","DECAY_DATE":null,"ECCENTRICITY":"0.00018630","BSTAR":"0.00015984000000","TLE_LINE1":"1 53724U 22107AA  22350.86263023  .00002256  00000-0  15984-3 0  9990","MEAN_ELEMENT_THEORY":"SGP4","LAUNCH_DATE":"2022-09-05","APOAPSIS":"541.062","INCLINATION":"53.2174","ELEMENT_SET_NO":"999","MEAN_MOTION_DDOT":"0.0000000000000","CLASSIFICATION_TYPE":"U","RA_OF_ASC_NODE":"145.8655","OBJECT_NAME":"STARLINK-4663","ARG_OF_PERICENTER":"42.0050","CENTER_NAME":"EARTH","REV_AT_EPOCH":"1645","TLE_LINE2":"2 53724  53.2174 145.8655 0001863  42.0050 318.1084 15.08831023 16450","GP_ID":"220665678","OBJECT_ID":"2022-107AA","FILE":"3705029","REF_FRAME":"TEME","PERIAPSIS":"538.484","EPHEMERIS_TYPE":"0","OBJECT_TYPE":"PAYLOAD","MEAN_MOTION_DOT":"0.00002256","SEMIMAJOR_AXIS":"6917.908"}];
